{"type": "FeatureCollection", "features": [ {"type": "Feature", "properties": {"norad_id": 43010, "name": "FENGYUN 3D", "group": "weather", "lat": -76.2548687474124, "lon": 96.28227835698878, "alt_km": 833.6955721782397, "timestamp": "2025-12-16T05:49:08.866269+00:00", "meta": {"OBJECT_NAME": "FENGYUN 3D", "OBJECT_ID": "2017-072A", "EPOCH": "2025-12-15T23:31:33.307104", "MEAN_MOTION": 14.19685106, "ECCENTRICITY": 0.00010796, "INCLINATION": 98.9888, "RA_OF_ASC_NODE": 316.3391, "ARG_OF_PERICENTER": 171.6001, "MEAN_ANOMALY": 188.5192, "EPHEMERIS_TYPE": 0, "CLASSIFICATION_TYPE": "U", "NORAD_CAT_ID": 43010, "ELEMENT_SET_NO": 999, "REV_AT_EPOCH": 41899, "BSTAR": 9.8748252e-05, "MEAN_MOTION_DOT": 1.63e-06, "MEAN_MOTION_DDOT": 0}, "tle": {"line1": "1 43010U 17072A   25349.98024661  .00000163  00000+0  98748-4 0  9993", "line2": "2 43010  98.9888 316.3391 0001079 171.6001 188.5192 14.19685106418995"}}, "geometry": {"type": "Point", "coordinates": [96.28227835698878, -76.2548687474124]}}, {"type": "Feature", "properties": {"norad_id": 43013, "name": "NOAA 20 (JPSS-1)", "group": "weather", "lat": 48.935092230519395, "lon": -83.69281878938338, "alt_km": 821.1728259481642, "timestamp": "2025-12-16T05:49:08.866280+00:00", "meta": {"OBJECT_NAME": "NOAA 20 (JPSS-1)", "OBJECT_ID": "2017-073A", "EPOCH": "2025-12-15T21:07:38.993088", "MEAN_MOTION": 14.19526557, "ECCENTRICITY": 0.00021548, "INCLINATION": 98.7602, "RA_OF_ASC_NODE": 286.1427, "ARG_OF_PERICENTER": 82.6874, "MEAN_ANOMALY": 277.4547, "EPHEMERIS_TYPE": 0, "CLASSIFICATION_TYPE": "U", "NORAD_CAT_ID": 43013, "ELEMENT_SET_NO": 999, "REV_AT_EPOCH": 41846, "BSTAR": 5.3735743e-05, "MEAN_MOTION_DOT": 6.9e-07, "MEAN_MOTION_DDOT": 0}, "tle": {"line1": "1 43013U 17073A   25349.88031242  .00000069  00000+0  53736-4 0  9992", "line2": "2 43013  98.7602 286.1427 0002154  82.6874 277.4547 14.19526557418466"}}, "geometry": {"type": "Point", "coordinates": [-83.69281878938338, 48.935092230519395]}}, {"type": "Feature", "properties": {"norad_id": 43226, "name": "GOES 17", "group": "weather", "lat": -0.02669837225883389, "lon": 82.92647537688356, "alt_km": 35798.98547533766, "timestamp": "2025-12-16T05:49:08.866292+00:00", "meta": {"OBJECT_NAME": "GOES 17", "OBJECT_ID": "2018-022A", "EPOCH": "2025-12-15T21:31:19.484256", "MEAN_MOTION": 1.00271456, "ECCENTRICITY": 0.00031467, "INCLINATION": 0.4667, "RA_OF_ASC_NODE": 89.1554, "ARG_OF_PERICENTER": 190.1059, "MEAN_ANOMALY": 38.87, "EPHEMERIS_TYPE": 0, "CLASSIFICATION_TYPE": "U", "NORAD_CAT_ID": 43226, "ELEMENT_SET_NO": 999, "REV_AT_EPOCH": 2858, "BSTAR": 0, "MEAN_MOTION_DOT": -1.6e-06, "MEAN_MOTION_DDOT": 0}, "tle": {"line1": "1 43226U 18022A   25349.89675329 -.00000160  00000+0  00000+0 0  9998", "line2": "2 43226   0.4667  89.1554 0003146 190.1059  38.8700  1.00271456 28588"}}, "geometry": {"type": "Point", "coordinates": [82.92647537688356, -0.02669837225883389]}}, {"type": "Feature", "properties": {"norad_id": 43491, "name": "FENGYUN 2H", "group": "weather", "lat": 0.3988541207074104, "lon": -108.21770371185139, "alt_km": 35775.43015606869, "timestamp": "2025-12-16T05:49:08.866305+00:00", "meta": {"OBJECT_NAME": "FENGYUN 2H", "OBJECT_ID": "2018-050A", "EPOCH": "2025-12-15T22:19:29.870112", "MEAN_MOTION": 1.00271371, "ECCENTRICITY": 0.00025374, "INCLINATION": 2.5591, "RA_OF_ASC_NODE": 81.2964, "ARG_OF_PERICENTER": 167.0661, "MEAN_ANOMALY": 250.6964, "EPHEMERIS_TYPE": 0, "CLASSIFICATION_TYPE": "U", "NORAD_CAT_ID": 43491, "ELEMENT_SET_NO": 999, "REV_AT_EPOCH": 2760, "BSTAR": 0, "MEAN_MOTION_DOT": -1.09e-06, "MEAN_MOTION_DDOT": 0}, "tle": {"line1": "1 43491U 18050A   25349.93020683 -.00000109  00000+0  00000+0 0  9998", "line2": "2 43491   2.5591  81.2964 0002537 167.0661 250.6964  1.00271371 27608"}}, "geometry": {"type": "Point", "coordinates": [-108.21770371185139, 0.3988541207074104]}}, {"type": "Feature", "properties": {"norad_id": 43689, "name": "METOP-C", "group": "weather", "lat": -35.09121012429047, "lon": -138.21210061253936, "alt_km": 827.3342537358667, "timestamp": "2025-12-16T05:49:08.866323+00:00", "meta": {"OBJECT_NAME": "METOP-C", "OBJECT_ID": "2018-087A", "EPOCH": "2025-12-15T22:03:04.819392", "MEAN_MOTION": 14.21485566, "ECCENTRICITY": 0.00011018, "INCLINATION": 98.6928, "RA_OF_ASC_NODE": 47.6398, "ARG_OF_PERICENTER": 33.5759, "MEAN_ANOMALY": 326.5488, "EPHEMERIS_TYPE": 0, "CLASSIFICATION_TYPE": "U", "NORAD_CAT_ID": 43689, "ELEMENT_SET_NO": 999, "REV_AT_EPOCH": 36879, "BSTAR": 7.6510699e-05, "MEAN_MOTION_DOT": 1.24e-06, "MEAN_MOTION_DDOT": 0}, "tle": {"line1": "1 43689U 18087A   25349.91880578  .00000124  00000+0  76511-4 0  9993", "line2": "2 43689  98.6928  47.6398 0001101  33.5759 326.5488 14.21485566368797"}}, "geometry": {"type": "Point", "coordinates": [-138.21210061253936, -35.09121012429047]}}, {"type": "Feature", "properties": {"norad_id": 43823, "name": "GEO-KOMPSAT-2A", "group": "weather", "lat": -0.018735281999894233, "lon": -59.308865425751016, "alt_km": 35788.00820822539, "timestamp": "2025-12-16T05:49:08.866335+00:00", "meta": {"OBJECT_NAME": "GEO-KOMPSAT-2A", "OBJECT_ID": "2018-100A", "EPOCH": "2025-12-14T19:09:50.685120", "MEAN_MOTION": 1.00272904, "ECCENTRICITY": 4.857e-05, "INCLINATION": 0.0478, "RA_OF_ASC_NODE": 139.8747, "ARG_OF_PERICENTER": 333.1425, "MEAN_ANOMALY": 26.433, "EPHEMERIS_TYPE": 0, "CLASSIFICATION_TYPE": "U", "NORAD_CAT_ID": 43823, "ELEMENT_SET_NO": 999, "REV_AT_EPOCH": 2578, "BSTAR": 0, "MEAN_MOTION_DOT": -3.24e-06, "MEAN_MOTION_DDOT": 0}, "tle": {"line1": "1 43823U 18100A   25348.79850330 -.00000324  00000+0  00000+0 0  9995", "line2": "2 43823   0.0478 139.8747 0000485 333.1425  26.4330  1.00272904 25783"}}, "geometry": {"type": "Point", "coordinates": [-59.308865425751016, -0.018735281999894233]}}, {"type": "Feature", "properties": {"norad_id": 44387, "name": "METEOR-M2 2", "group": "weather", "lat": -34.66831893756637, "lon": -23.76635440662159, "alt_km": 818.0628217641033, "timestamp": "2025-12-16T05:49:08.866349+00:00", "meta": {"OBJECT_NAME": "METEOR-M2 2", "OBJECT_ID": "2019-038A", "EPOCH": "2025-12-15T23:14:23.635104", "MEAN_MOTION": 14.24293088, "ECCENTRICITY": 0.00014103, "INCLINATION": 98.8971, "RA_OF_ASC_NODE": 329.7367, "ARG_OF_PERICENTER": 141.5201, "MEAN_ANOMALY": 218.6079, "EPHEMERIS_TYPE": 0, "CLASSIFICATION_TYPE": "U", "NORAD_CAT_ID": 44387, "ELEMENT_SET_NO": 999, "REV_AT_EPOCH": 33521, "BSTAR": 4.597387e-05, "MEAN_MOTION_DOT": 6e-07, "MEAN_MOTION_DDOT": 0}, "tle": {"line1": "1 44387U 19038A   25349.96832911  .00000060  00000+0  45974-4 0  9997", "line2": "2 44387  98.8971 329.7367 0001410 141.5201 218.6079 14.24293088335215"}}, "geometry": {"type": "Point", "coordinates": [-23.76635440662159, -34.66831893756637]}}, {"type": "Feature", "properties": {"norad_id": 47719, "name": "ARKTIKA-M 1", "group": "weather", "lat": 61.64616499607299, "lon": 153.01344955236664, "alt_km": 37974.96904117391, "timestamp": "2025-12-16T05:49:08.866364+00:00", "meta": {"OBJECT_NAME": "ARKTIKA-M 1", "OBJECT_ID": "2021-016A", "EPOCH": "2025-12-09T14:03:23.859648", "MEAN_MOTION": 2.00631311, "ECCENTRICITY": 0.7202538, "INCLINATION": 63.1769, "RA_OF_ASC_NODE": 84.4506, "ARG_OF_PERICENTER": 269.1116, "MEAN_ANOMALY": 15.6235, "EPHEMERIS_TYPE": 0, "CLASSIFICATION_TYPE": "U", "NORAD_CAT_ID": 47719, "ELEMENT_SET_NO": 999, "REV_AT_EPOCH": 3498, "BSTAR": 0, "MEAN_MOTION_DOT": -6.1e-07, "MEAN_MOTION_DDOT": 0}, "tle": {"line1": "1 47719U 21016A   25343.58569282 -.00000061  00000+0  00000+0 0  9996", "line2": "2 47719  63.1769  84.4506 7202538 269.1116  15.6235  2.00631311 34985"}}, "geometry": {"type": "Point", "coordinates": [153.01344955236664, 61.64616499607299]}}, {"type": "Feature", "properties": {"norad_id": 49008, "name": "FENGYUN 3E", "group": "weather", "lat": -47.95568581721103, "lon": 160.89149827927977, "alt_km": 832.0950197296243, "timestamp": "2025-12-16T05:49:08.866379+00:00", "meta": {"OBJECT_NAME": "FENGYUN 3E", "OBJECT_ID": "2021-062A", "EPOCH": "2025-12-15T23:40:18.801408", "MEAN_MOTION": 14.19881378, "ECCENTRICITY": 6.281e-05, "INCLINATION": 98.7478, "RA_OF_ASC_NODE": 350.4692, "ARG_OF_PERICENTER": 238.9796, "MEAN_ANOMALY": 121.1319, "EPHEMERIS_TYPE": 0, "CLASSIFICATION_TYPE": "U", "NORAD_CAT_ID": 49008, "ELEMENT_SET_NO": 999, "REV_AT_EPOCH": 23058, "BSTAR": 0.00016384858, "MEAN_MOTION_DOT": 3.04e-06, "MEAN_MOTION_DDOT": 0}, "tle": {"line1": "1 49008U 21062A   25349.98632872  .00000304  00000+0  16385-3 0  9992", "line2": "2 49008  98.7478 350.4692 0000628 238.9796 121.1319 14.19881378230581"}}, "geometry": {"type": "Point", "coordinates": [160.89149827927977, -47.95568581721103]}}, {"type": "Feature", "properties": {"norad_id": 51850, "name": "GOES 18", "group": "weather", "lat": -5.2186708105923884e-05, "lon": 35.4168497428349, "alt_km": 35785.48857537677, "timestamp": "2025-12-16T05:49:08.866390+00:00", "meta": {"OBJECT_NAME": "GOES 18", "OBJECT_ID": "2022-021A", "EPOCH": "2025-12-15T17:52:20.868672", "MEAN_MOTION": 1.00271592, "ECCENTRICITY": 4.764e-05, "INCLINATION": 0.0106, "RA_OF_ASC_NODE": 96.1973, "ARG_OF_PERICENTER": 226.8289, "MEAN_ANOMALY": 252.7066, "EPHEMERIS_TYPE": 0, "CLASSIFICATION_TYPE": "U", "NORAD_CAT_ID": 51850, "ELEMENT_SET_NO": 999, "REV_AT_EPOCH": 475, "BSTAR": 0, "MEAN_MOTION_DOT": 1.19e-06, "MEAN_MOTION_DDOT": 0}, "tle": {"line1": "1 51850U 22021A   25349.74468598  .00000119  00000+0  00000+0 0  9999", "line2": "2 51850   0.0106  96.1973 0000476 226.8289 252.7066  1.00271592  4758"}}, "geometry": {"type": "Point", "coordinates": [35.4168497428349, -5.2186708105923884e-05]}}]}